NORAD_CAT_ID,OBJECT_NAME,OBJECT_TYPE,EPOCH,MEAN_MOTION,ECCENTRICITY,INCLINATION,RA_OF_ASC_NODE,ARG_OF_PERICENTER,MEAN_ANOMALY,BSTAR,MEAN_MOTION_DOT,MEAN_MOTION_DDOT,TLE_LINE0,TLE_LINE1,TLE_LINE2,SEMIMAJOR_AXIS,PERIOD,APOGEE,PERIGEE,DECAYED
52700.0,STARLINK-4034,PAYLOAD,2022-09-29 13:11:53,15.08811248,0.0001753,53.219,32.6291,47.612,312.502,-0.00020855,-3.603e-05,0.0,0 STARLINK-4034,1 52700U 22053AW  22272.54993040 -.00003603  00000-0 -20855-3 0  9992,2 52700  53.2190  32.6291 0001753  47.6120 312.5020 15.08811248 21302,6917.968000000003,95.439,541.0459999999998,538.621,0.0
52700.0,STARLINK-4034,PAYLOAD,2022-09-29 19:33:26,15.08816629,0.0001771999999999,53.219,31.4397,46.145,313.9689,-0.00014818,-2.644e-05,0.0,0 STARLINK-4034,1 52700U 22053AW  22272.81488961 -.00002644  00000-0 -14818-3 0  9999,2 52700  53.2190  31.4397 0001772  46.1450 313.9689 15.08816629 20939,6917.9519999999975,95.439,541.043,538.591,0.0
52700.0,STARLINK-4034,PAYLOAD,2022-09-30 03:30:20,15.0884182,0.0001764,53.2189,29.9524,45.6206,314.4931,-7.2104e-05,-1.436e-05,0.0,0 STARLINK-4034,1 52700U 22053AW  22273.14607444 -.00001436  00000-0 -72104-4 0  9996,2 52700  53.2189  29.9524 0001764  45.6206 314.4931 15.08841820 20987,6917.875,95.437,540.96,538.52,0.0
52700.0,STARLINK-4034,PAYLOAD,2022-09-30 11:27:15,15.0885062,0.0001754999999999,53.219,28.4656,46.5119,313.6018,1.2655e-05,-8.7e-07,0.0,0 STARLINK-4034,1 52700U 22053AW  22273.47726613 -.00000087  00000-0  12655-4 0  9997,2 52700  53.2190  28.4656 0001755  46.5119 313.6018 15.08850620 21449,6917.848000000001,95.437,540.927,538.499,0.0
52700.0,STARLINK-4034,PAYLOAD,2022-09-30 14:38:01,15.088533600000002,0.0001792,53.2191,27.8714,45.4249,314.689,4.216e-05,3.83e-06,0.0,0 STARLINK-4034,1 52700U 22053AW  22273.60974349  .00000383  00000-0  42160-4 0  9995,2 52700  53.2191  27.8714 0001792  45.4249 314.6890 15.08853360 21051,6917.84,95.437,540.944,538.465,0.0
52700.0,STARLINK-4034,PAYLOAD,2022-09-30 19:24:10,15.0886176,0.0001801,53.2193,26.9792,46.302,313.8121,9.4423e-05,1.216e-05,0.0,0 STARLINK-4034,1 52700U 22053AW  22273.80845569  .00001216  00000-0  94423-4 0  9993,2 52700  53.2193  26.9792 0001801  46.3020 313.8121 15.08861760 21496,6917.814,95.436,540.925,538.433,0.0
52700.0,STARLINK-4034,PAYLOAD,2022-10-01 12:53:26,15.08827943,0.0001744,53.2192,23.7084,46.0587,314.0549,0.00013014,1.783e-05,0.0,0 STARLINK-4034,1 52700U 22053AW  22274.53711550  .00001783  00000-0  13014-3 0  9991,2 52700  53.2192  23.7084 0001744  46.0587 314.0549 15.08827943 21194,6917.917,95.438,540.989,538.576,0.0
52700.0,STARLINK-4034,PAYLOAD,2022-10-01 19:14:59,15.08827079,0.0001838,53.2193,22.5191,45.6265,314.4877,0.00030496,4.567e-05,0.0,0 STARLINK-4034,1 52700U 22053AW  22274.80207651  .00004567  00000-0  30496-3 0  9999,2 52700  53.2193  22.5191 0001838  45.6265 314.4877 15.08827079 21641,6917.92,95.438,541.056,538.513,0.0
52700.0,STARLINK-4034,PAYLOAD,2022-10-02 03:11:54,15.0883957,0.0001872,53.2192,21.0326,46.3368,313.7779,0.00032195,4.839e-05,0.0,0 STARLINK-4034,1 52700U 22053AW  22275.13327215  .00004839  00000-0  32195-3 0  9995,2 52700  53.2192  21.0326 0001872  46.3368 313.7779 15.08839570 21286,6917.882,95.438,541.0419999999998,538.452,0.0
52700.0,STARLINK-4034,PAYLOAD,2022-10-02 12:44:12,15.08849406,0.0001799,53.2183,19.2485,45.2424,314.8714,7.7348e-05,9.43e-06,0.0,0 STARLINK-4034,1 52700U 22053AW  22275.53070593  .00000943  00000-0  77348-4 0  9995,2 52700  53.2183  19.2485 0001799  45.2424 314.8714 15.08849406 21752,6917.852,95.437,540.961,538.472,0.0
52700.0,STARLINK-4034,PAYLOAD,2022-10-02 19:05:45,15.08844277,0.0001899,53.2183,18.0592,40.5998,319.5135,-3.0023e-05,-7.66e-06,0.0,0 STARLINK-4034,1 52700U 22053AW  22275.79566693 -.00000766  00000-0 -30023-4 0  9998,2 52700  53.2183  18.0592 0001899  40.5998 319.5135 15.08844277 21797,6917.8669999999975,95.437,541.0459999999998,538.419,0.0
52700.0,STARLINK-4034,PAYLOAD,2022-10-03 10:59:36,15.08847543,0.0001828,53.2185,15.0853,40.6262,319.4867,0.00014079,1.954e-05,0.0,0 STARLINK-4034,1 52700U 22053AW  22276.45806473  .00001954  00000-0  14079-3 0  9995,2 52700  53.2185  15.0853 0001828  40.6262 319.4867 15.08847543 21489,6917.857,95.437,540.987,538.4580000000002,0.0
52700.0,STARLINK-4034,PAYLOAD,2022-10-03 12:34:59,15.08849128,0.000185,53.2184,14.7881,41.3472,318.766,0.00019092,2.752e-05,0.0,0 STARLINK-4034,1 52700U 22053AW  22276.52430426  .00002752  00000-0  19092-3 0  9991,2 52700  53.2184  14.7881 0001850  41.3472 318.7660 15.08849128 21902,6917.852,95.437,540.997,538.438,0.0
52700.0,STARLINK-4034,PAYLOAD,2022-10-03 18:56:32,15.08862538,0.0001836,53.218,13.5987,40.9352,319.1778,0.00069574,0.00010809,0.0,0 STARLINK-4034,1 52700U 22053AW  22276.78925998  .00010809  00000-0  69574-3 0  9994,2 52700  53.2180  13.5987 0001836  40.9352 319.1778 15.08862538 21532,6917.812,95.436,540.947,538.406,0.0
52700.0,STARLINK-4034,PAYLOAD,2022-10-04 12:25:46,15.08858136,0.0001901,53.2183,10.3279,43.0529,317.0612,0.00038742,5.886e-05,0.0,0 STARLINK-4034,1 52700U 22053AW  22277.51789674  .00005886  00000-0  38742-3 0  9997,2 52700  53.2183  10.3279 0001901  43.0529 317.0612 15.08858136 22058,6917.825,95.436,541.005,538.375,0.0
52700.0,STARLINK-4034,PAYLOAD,2022-10-04 14:01:09,15.08858629,0.0001895,53.218,10.0303,43.0462,317.0678,0.00042226,6.442e-05,0.0,0 STARLINK-4034,1 52700U 22053AW  22277.58413562  .00006442  00000-0  42226-3 0  9995,2 52700  53.2180  10.0303 0001895  43.0462 317.0678 15.08858629 21652,6917.823,95.436,540.999,538.378,0.0
52700.0,STARLINK-4034,PAYLOAD,2022-10-04 18:47:18,15.08854803,0.0001924,53.2182,9.1383,43.076,317.0382,0.00025979,3.851e-05,0.0,0 STARLINK-4034,1 52700U 22053AW  22277.78285554  .00003851  00000-0  25979-3 0  9992,2 52700  53.2182   9.1383 0001924  43.0760 317.0382 15.08854803 22096,6917.835,95.437,541.031,538.369,0.0
52700.0,STARLINK-4034,PAYLOAD,2022-10-05 05:55:00,15.0884601,0.0001779,53.2182,7.0566,43.1071,317.0061,0.00010092,1.319e-05,0.0,0 STARLINK-4034,1 52700U 22053AW  22278.24653640  .00001319  00000-0  10092-3 0  9996,2 52700  53.2182   7.0566 0001779  43.1071 317.0061 15.08846010 21757,6917.861999999999,95.437,540.9580000000002,538.496,0.0
52700.0,STARLINK-4034,PAYLOAD,2022-10-05 12:16:34,15.08824778,0.0001872,53.2186,5.8677,39.5976,320.5152,-0.00029597,-4.993e-05,0.0,0 STARLINK-4034,1 52700U 22053AW  22278.51150666 -.00004993  00000-0 -29597-3 0  9999,2 52700  53.2186   5.8677 0001872  39.5976 320.5152 15.08824778 22205,6917.927,95.439,541.087,538.497,0.0
52700.0,STARLINK-4034,PAYLOAD,2022-10-05 13:51:57,15.0882608,0.0001827,53.2188,5.5699,42.7176,317.3958,-0.00024914,-4.25e-05,0.0,0 STARLINK-4034,1 52700U 22053AW  22278.57774924 -.00004250  00000-0 -24914-3 0  9998,2 52700  53.2188   5.5699 0001827  42.7176 317.3958 15.08826080 22213,6917.9230000000025,95.438,541.052,538.524,0.0
52700.0,STARLINK-4034,PAYLOAD,2022-10-06 02:35:02,15.08836761,0.000186,53.2196,3.1915,40.7545,319.3586,-0.00010669,-1.986e-05,0.0,0 STARLINK-4034,1 52700U 22053AW  22279.10767174 -.00001986  00000-0 -10669-3 0  9992,2 52700  53.2196   3.1915 0001860  40.7545 319.3586 15.08836761 21880,6917.89,95.438,541.0419999999998,538.469,0.0
52700.0,STARLINK-4034,PAYLOAD,2022-10-06 12:07:21,15.0884049,0.0001874,53.2195,1.4074,40.8736,319.2396,-2.0159e-05,-6.09e-06,0.0,0 STARLINK-4034,1 52700U 22053AW  22279.50510773 -.00000609  00000-0 -20159-4 0  9994,2 52700  53.2195   1.4074 0001874  40.8736 319.2396 15.08840490 21943,6917.879,95.438,541.04,538.447,0.0
52700.0,STARLINK-4034,PAYLOAD,2022-10-07 00:50:25,15.08846981,0.0001926,53.2195,359.0288,40.4767,319.6368,9.4195e-05,1.212e-05,0.0,0 STARLINK-4034,1 52700U 22053AW  22280.03502003  .00001212  00000-0  94195-4 0  9991,2 52700  53.2195 359.0288 0001926  40.4767 319.6368 15.08846981 22024,6917.859,95.437,541.056,538.3919999999998,0.0
52700.0,STARLINK-4034,PAYLOAD,2022-10-07 08:47:21,15.0884146,0.0002129,53.2193,357.542,33.6233,326.4894,0.0001293,1.77e-05,0.0,0 STARLINK-4034,1 52700U 22053AW  22280.36622476  .00001770  00000-0  12930-3 0  9999,2 52700  53.2193 357.5420 0002129  33.6233 326.4894 15.08841460 22073,6917.876,95.437,541.214,538.268,0.0
52700.0,STARLINK-4034,PAYLOAD,2022-10-07 10:22:45,15.08840918,0.0002129,53.2195,357.2448,32.821,327.2914,0.00012092,1.637e-05,0.0,0 STARLINK-4034,1 52700U 22053AW  22280.43246546  .00001637  00000-0  12092-3 0  9998,2 52700  53.2195 357.2448 0002129  32.8210 327.2914 15.08840918 22493,6917.878000000002,95.437,541.215,538.27,0.0
52700.0,STARLINK-4034,PAYLOAD,2022-10-07 11:58:08,15.08838654,0.0001939,53.2195,356.9473,41.6827,318.4313,0.00019092,2.752e-05,0.0,0 STARLINK-4034,1 52700U 22053AW  22280.49870572  .00002752  00000-0  19092-3 0  9992,2 52700  53.2195 356.9473 0001939  41.6827 318.4313 15.08838654 22508,6917.885,95.438,541.091,538.408,0.0
52700.0,STARLINK-4034,PAYLOAD,2022-10-08 05:27:23,15.08835851,0.0001914,53.2192,353.6764,40.5234,319.59,0.00014239,1.978e-05,0.0,0 STARLINK-4034,1 52700U 22053AW  22281.22735045  .00001978  00000-0  14239-3 0  9996,2 52700  53.2192 353.6764 0001914  40.5234 319.5900 15.08835851 22202,6917.893,95.438,541.082,538.434,0.0
52700.0,STARLINK-4034,PAYLOAD,2022-10-08 11:48:56,15.08830712,0.0002061,53.219,352.4876,39.5003,320.6139,8.7264e-05,1.101e-05,0.0,0 STARLINK-4034,1 52700U 22053AW  22281.49231727  .00001101  00000-0  87264-4 0  9990,2 52700  53.2190 352.4876 0002061  39.5003 320.6139 15.08830712 22654,6917.909000000002,95.438,541.2,538.3480000000002,0.0
52700.0,STARLINK-4034,PAYLOAD,2022-10-09 11:39:45,15.08812639,0.0002089999999999,53.2194,348.0265,43.827,316.2888,-0.00016253,-2.872e-05,0.0,0 STARLINK-4034,1 52700U 22053AW  22282.48594055 -.00002872  00000-0 -16253-3 0  9993,2 52700  53.2194 348.0265 0002090  43.8270 316.2888 15.08812639 22398,6917.964,95.439,541.275,538.383,0.0
